OBJECT_NAME,OBJECT_ID,EPOCH,MEAN_MOTION,ECCENTRICITY,INCLINATION,RA_OF_ASC_NODE,ARG_OF_PERICENTER,MEAN_ANOMALY,EPHEMERIS_TYPE,CLASSIFICATION_TYPE,NORAD_CAT_ID,ELEMENT_SET_NO,REV_AT_EPOCH,BSTAR,MEAN_MOTION_DOT,MEAN_MOTION_DDOT
STARLINK-37975,2026-147D,2026-07-15T13:07:15.445056,15.80950238,.00003048,97.2829,232.9594,305.8001,54.3239,0,U,69707,999,391,.15235885E-2,.303973E-2,0
STARLINK-37972,2026-147E,2026-07-15T02:28:05.976480,15.80837116,.00007247,97.2831,232.4913,112.6643,247.4702,0,U,69708,999,384,.70898301E-3,.137961E-2,0
STARLINK-37963,2026-147F,2026-07-15T02:27:01.033056,15.80840988,.00009512,97.2827,232.4920,94.3369,265.8008,0,U,69709,999,384,.65644726E-3,.127597E-2,0
STARLINK-37969,2026-147G,2026-07-15T13:04:00.636384,15.80906167,.00009822,97.2834,232.9633,164.0023,196.1276,0,U,69710,999,391,.10066663E-2,.197932E-2,0
STARLINK-37956,2026-147H,2026-07-15T13:02:55.598784,15.80922816,.00020092,97.2832,232.9642,175.3907,184.7381,0,U,69711,999,391,.11983543E-2,.236899E-2,0
STARLINK-38043,2026-147J,2026-07-15T13:01:49.792224,15.80949742,.00012295,97.2827,232.9644,127.9032,232.2348,0,U,69712,999,391,.17524675E-2,.351569E-2,0
STARLINK-38020,2026-147K,2026-07-15T13:00:45.964224,15.80921012,.00004279,97.2830,232.9660,25.1141,335.0148,0,U,69713,999,391,.11736543E-2,.231859E-2,0
STARLINK-38059,2026-147L,2026-07-15T12:59:40.924896,15.80924946,.00009971,97.2831,232.9673,180.9957,179.1310,0,U,69714,999,391,.12356312E-2,.244507E-2,0
STARLINK-38061,2026-147M,2026-07-15T12:58:35.999616,15.80907156,.00002091,97.2838,232.9689,284.7967,75.3278,0,U,69715,999,391,.10332092E-2,.203296E-2,0
STARLINK-38060,2026-147N,2026-07-15T12:57:31.311072,15.80900709,.00006618,97.2833,232.9691,84.4932,275.6412,0,U,69716,999,391,.10609388E-2,.208823E-2,0
STARLINK-38040,2026-147P,2026-07-15T02:18:21.864096,15.80842194,.00013312,97.2819,232.5013,29.1016,331.0326,0,U,69717,999,384,.68266375E-3,.132787E-2,0
STARLINK-37989,2026-147Q,2026-07-15T14:00:01.999872,15.80877455,.00009351,97.2832,233.0187,97.6541,157.8957,0,U,69718,999,389,-.32923652E-3,-.62927E-3,0
STARLINK-38039,2026-147R,2026-07-15T12:54:16.634592,15.80921880,.00009383,97.2824,232.9708,52.7992,307.3361,0,U,69719,999,391,.10386667E-2,.204531E-2,0
STARLINK-38003,2026-147S,2026-07-15T12:53:11.770656,15.80904861,.00015346,97.2826,232.9718,111.1882,248.9550,0,U,69720,999,391,.11810394E-2,.233178E-2,0
STARLINK-38014,2026-147T,2026-07-15T12:52:06.638016,15.80899195,.00006535,97.2849,232.9745,59.6210,300.5122,0,U,69721,999,391,.10049656E-2,.197527E-2,0
STARLINK-37915,2026-147U,2026-07-15T02:12:57.345696,15.80837015,.00021438,97.2827,232.5049,24.3571,335.7799,0,U,69722,999,384,.58086347E-3,.112684E-2,0
STARLINK-38007,2026-147V,2026-07-15T14:00:01.999872,15.80866197,.00011341,97.2832,233.0195,114.9868,144.0601,0,U,69723,999,389,-.24956547E-3,-.47793E-3,0
STARLINK-38008,2026-147W,2026-07-15T02:10:47.298144,15.80862295,.0000974,97.2834,232.5081,56.3109,303.8252,0,U,69724,999,384,.95517982E-3,.187193E-2,0
STARLINK-38021,2026-147X,2026-07-15T02:09:42.724512,15.80841708,.00035731,97.2820,232.5094,8.1427,351.9899,0,U,69725,999,384,.67756298E-3,.131813E-2,0
STARLINK-38015,2026-147Y,2026-07-15T02:08:37.875264,15.80840269,.00031378,97.2832,232.5109,6.2476,353.8831,0,U,69726,999,384,.67270524E-3,.130833E-2,0
STARLINK-38010,2026-147Z,2026-07-15T11:49:47.322912,15.75222823,.00010537,97.2831,232.8796,68.8304,291.3073,0,U,69727,999,390,.85445573E-3,.129449E-2,0
SXM-11,2026-148A,2026-07-15T14:30:28.858752,1.00269467,.00019246,0.1110,265.2882,178.0207,307.2555,0,U,69728,999,32,0,0,0
HAIYANG-2E,2026-149A,2026-07-13T15:15:28.816416,13.79314717,.0001579,99.3454,201.5813,93.5996,266.5337,0,U,69737,999,161,-.45287E-4,-.91E-6,0
STARLINK-38033,2026-150A,2026-07-15T12:39:51.192576,15.80886888,.00012172,97.2836,34.9083,55.7735,304.3649,0,U,69739,999,337,.90066352E-3,.176481E-2,0
STARLINK-38076,2026-150B,2026-07-15T11:36:58.599648,15.75245751,.00016957,97.2819,34.8137,102.7305,257.4150,0,U,69740,999,336,.91130115E-3,.138355E-2,0
STARLINK-38074,2026-150C,2026-07-15T14:00:01.999872,15.80884137,.00014665,97.2832,34.9752,77.2157,254.2543,0,U,69741,999,336,-.52404596E-3,-.99696E-3,0
STARLINK-38041,2026-150D,2026-07-14T12:16:40.240704,15.80925154,.00013947,97.2822,33.8415,105.4157,254.7266,0,U,69742,999,321,.10042928E-2,.19763E-2,0
STARLINK-38087,2026-150E,2026-07-15T12:33:53.685792,15.79886716,.00034646,97.2821,34.9131,8.7471,351.3857,0,U,69743,999,337,-.11166675E-1,-.180649E-1,0
STARLINK-38078,2026-150F,2026-07-15T00:23:38.630976,15.80814543,.00005849,97.2819,34.3791,103.9050,256.2283,0,U,69744,999,329,.10634835E-2,.208496E-2,0
